# From MPC 70817
C/2010 M1 (Gibbs),p,02/07.840/2012,78.373,265.318,2.29869,82.150,2000,9.0,4.0
# From MPC 88325
C/2010 R1 (LINEAR),h,05/19.6359/2012,156.9811,343.8068,114.9048,1.001288,5.652448,2000,6.0,4.0
# From MPC115879
C/2010 S1 (LINEAR),e,125.2882,93.4131,118.5609,10298,0.0000009,0.99942585,0.0000,05/15.4237/2013,2000,g  3.5,4.0
# From MPC 74248
P/2010 T2 (PANSTARRS),e,7.9233,59.1072,353.8047,5.508789,0.0762289,0.32157943,262.5042,09/25.0/2020,2000,g 11.5,4.0
# From MPC 98558
P/2010 TO20 (LINEAR-Grauer),e,2.4793,43.2988,266.7619,5.828441,0.0700447,0.05440968,304.9690,09/25.0/2020,2000,g  9.0,4.0
# From MPC 82316
P/2010 U1 (Boattini),e,8.2141,280.7183,85.8864,6.512671,0.0593015,0.24787553,231.2218,09/25.0/2020,2000,g  9.5,4.0
# From MPC119994
C/2010 U3 (Boattini),e,55.5191,43.0372,88.0737,2493,0.0000079,0.99661228,0.0000,02/25.9941/2019,2000,g  1.0,4.0
# From MPC 79021
P/2010 UH55 (Spacewatch),e,8.0479,233.0098,225.1846,6.650297,0.0574702,0.56358384,198.2851,09/25.0/2020,2000,g 11.0,4.0
# From MPC 75009
P/2010 WK (LINEAR),e,11.4003,11.3140,40.9962,5.759761,0.0713013,0.68972184,260.4145,09/25.0/2020,2000,g 14.5,2.0
# From MPC 76025
C/2010 X1 (Elenin),e,1.9020,321.5796,344.9045,525.7247,0.0000818,0.99911721,0.0000,09/13.6519/2011,2000,g 10.0,4.0
# From MPC 82317
P/2011 A2 (Scotti),e,4.4752,54.6754,94.5358,3.105123,0.1801299,0.49939706,282.0580,09/25.0/2020,2000,g 16.5,4.0
# From MPC 98558
C/2011 A3 (Gibbs),e,26.1000,124.5398,141.4622,1092,0.0000273,0.99785163,0.0000,12/18.4544/2011,2000,g 10.0,4.0
# From MPC 82317
C/2011 C1 (McNaught),e,16.2425,190.7790,86.1503,608.8992,0.0000656,0.99855492,0.0000,04/21.8394/2011,2000,g 15.5,4.0
# From MPC 84021
P/2011 C2 (Gibbs),e,10.8853,12.1234,161.0407,7.414208,0.0488210,0.26904158,155.6112,09/25.0/2020,2000,g  9.0,4.0
# From MPC 75516
C/2011 C3 (Gibbs),e,49.2405,20.8533,206.9466,328.7980,0.0001653,0.99535941,0.0000,04/09.1354/2011,2000,g 17.0,4.0
# From MPC 89309
C/2011 F1 (LINEAR),e,56.7494,84.9940,192.6370,105424,0.0000000,0.99998273,0.0000,01/10.0726/2013,2000,g  5.0,4.0
# From MPC 79866
P/2011 FR143 (Lemmon),e,15.9892,190.9501,350.1428,6.856118,0.0549018,0.45112103,191.7653,09/25.0/2020,2000,g 14.0,2.0
# From MPC 80044
C/2011 G1 (McNaught),h,09/20.3061/2011,162.1387,153.3110,355.1946,1.001264,2.142452,2000,12.0,4.0
# From MPC106343
C/2011 J2 (LINEAR),h,12/24.7576/2013,122.6460,163.8575,85.1301,1.000741,3.433222,2000,5.5,3.6
# From MPEC 2015-K84
C/2011 J2-B (LINEAR),h,12/24.6374/2013,122.6485,163.8541,85.0877,1.001500,3.432416,2000,9.0,3.6
# From unp
C/2011 J2-C (LINEAR),h,12/24.7298/2013,122.6438,163.8593,85.1048,1.001536,3.432255,2000,11.0,3.6
# From MPC 75713
C/2011 J3 (LINEAR),e,114.7164,21.6055,27.8531,19.49650,0.0114490,0.92529195,40.5044,09/25.0/2020,2000,g 15.0,4.0
# From MPC 82317
P/2011 JB15 (Spacewatch-Boattini),e,19.1463,153.5988,110.9788,7.353410,0.0494278,0.31817451,156.5294,09/25.0/2020,2000,g  9.0,4.0
# From MPC 75516
C/2011 K1 (Schwartz-Holvorcem),h,04/19.7507/2011,122.6076,70.6079,167.1876,1.000085,3.402830,2000,12.0,4.0
# From MPEC 2020-AA5
C/2011 KP36 (Spacewatch),e,18.9838,173.3037,180.6427,38.84636,0.0040708,0.87439581,6.4377,09/25.0/2020,2000,g  4.5,4.0
# From MPC 83518
C/2011 L1 (McNaught),e,65.4786,252.1776,294.6270,11.05150,0.0268270,0.79521982,95.8657,09/25.0/2020,2000,g 11.0,4.0
# From MPC 78588
C/2011 L2 (McNaught),e,104.6064,131.6189,257.0541,25149,0.0000002,0.99992269,0.0000,11/01.2383/2011,2000,g 12.5,4.0
# From MPC 77405
C/2011 L3 (McNaught),e,87.5288,307.6837,27.6602,1124,0.0000262,0.99828784,0.0000,08/10.3262/2011,2000,g 12.5,4.0
# From MPC115880
C/2011 L4 (PANSTARRS),e,84.0481,65.8648,333.4796,1820,0.0000127,0.99983716,0.0000,03/08.0258/2013,2000,g  5.5,4.0
# From MPC 82718
C/2011 L6 (Boattini),h,01/20.9494/2011,171.4463,214.5539,331.8182,1.001391,6.824330,2000,9.0,4.0
# From MPC 75714
C/2011 M1 (LINEAR),h,09/05.2173/2011,70.1100,325.3650,119.4994,1.002248,0.901418,2000,12.0,4.0
# From MPC 87913
P/2011 N1 (ASH),e,35.7109,77.6045,330.3412,6.250469,0.0630718,0.54357451,192.4477,09/25.0/2020,2000,g 11.5,4.0
# From MPC 75714
P/2011 NO1 (Elenin),e,15.2490,295.7902,263.8336,5.522948,0.0759360,0.77494293,268.2763,09/25.0/2020,2000,g 15.0,4.0
# From MPC 76569
C/2011 N2 (McNaught),e,33.7725,273.7916,357.2192,3127,0.0000056,0.99918005,0.0000,10/21.1884/2011,2000,g 11.5,4.0
# From MPC 87476
C/2011 O1 (LINEAR),e,76.6357,89.7691,232.3905,939.9592,0.0000342,0.99586472,0.0000,08/21.1030/2012,2000,g  7.0,4.0
# From MPC 82318
P/2011 P1 (McNaught),e,5.6573,4.2408,348.8850,7.469408,0.0482808,0.32684960,179.6899,09/25.0/2020,2000,g  9.0,4.0
# From MPC107047
C/2011 P2 (PANSTARRS),e,8.9941,203.9247,76.2293,9.731144,0.0324682,0.36989988,118.8901,09/25.0/2020,2000,g  8.5,4.0
# From MPC 79867
C/2011 Q1 (PANSTARRS),e,94.7959,142.0717,135.8506,3073,0.0000058,0.99779403,0.0000,06/27.4322/2011,2000,g  9.5,4.0
# From MPC 79342
C/2011 Q2 (McNaught),e,37.3981,287.1373,34.7090,1010,0.0000307,0.99867209,0.0000,01/21.9426/2012,2000,g 10.0,4.0
# From MPC 77806
P/2011 Q3 (McNaught),e,6.0566,32.0246,310.9728,4.970410,0.0889438,0.53250897,298.3154,09/25.0/2020,2000,g 13.5,4.0
# From MPC 79342
C/2011 Q4 (SWAN),e,147.9117,252.0149,2.0217,41.82869,0.0036433,0.97301833,0.0000,09/21.0651/2011,2000,g 12.5,4.0
# From MPC 88325
C/2011 R1 (McNaught),h,10/17.0696/2012,116.1602,221.4904,309.1225,1.000133,2.103318,2000,6.5,4.0
# From MPEC 2020-N31
P/2011 R3 (Novichonok-Gerke),e,19.2639,189.6264,225.2554,4.777144,0.0943956,0.27179416,290.6990,09/25.0/2020,2000,g 11.0,4.0
# From MPC 98558
P/2011 S1 (Gibbs),e,2.6837,218.9066,192.5259,8.588780,0.0391568,0.20010393,87.5723,09/25.0/2020,2000,g  8.0,4.0
# From MPC 80897
C/2011 S2 (Kowalski),e,17.4848,288.0972,192.3107,16.35490,0.0149016,0.93091691,48.6345,09/25.0/2020,2000,g 15.5,4.0
# From MPEC 2020-N31
P/2011 U2 (Bressi),e,9.8853,263.1584,155.8155,4.884960,0.0912878,0.13529587,263.8203,09/25.0/2020,2000,g 10.0,4.0
# From MPC 78186
C/2011 U3 (PANSTARRS),e,116.7389,228.3927,288.0387,2461,0.0000081,0.99955723,0.0000,05/31.5876/2012,2000,g 14.0,4.0
# From MPC 79022
P/2011 UA134 (Spacewatch-PANSTARRS),e,10.4438,40.4273,32.4622,5.603367,0.0743071,0.62930209,240.5261,09/25.0/2020,2000,g 17.5,4.0
# From MPC 88325
C/2011 UF305 (LINEAR),e,94.0624,297.7733,121.8643,2762,0.0000068,0.99923019,0.0000,07/23.0580/2012,2000,g  9.0,4.0
# From MPC 77406
P/2011 V1 (Boattini),e,7.3772,46.8517,269.2399,3.854598,0.1302373,0.55062769,94.2761,09/25.0/2020,2000,g 15.5,4.0
# From MPC 82718
P/2011 W1 (PANSTARRS),e,3.7186,161.7901,282.7302,4.660147,0.0979726,0.28702564,310.9433,09/25.0/2020,2000,g 11.5,4.0
# From MPC 77807
C/2011 W3 (Lovejoy),e,137.8568,333.4188,58.7805,72.30824,0.0016030,0.99990889,0.0000,12/17.1227/2011,2000,g 14.5,4.0
# From MPC 79342
P/2011 Y2 (Boattini),e,6.3714,309.3684,131.9369,6.239665,0.0632357,0.70923047,197.5788,09/25.0/2020,2000,g 15.0,4.0
# From MPC 79342
C/2011 Y3 (Boattini),e,26.5099,84.8835,340.3472,11.72124,0.0245609,0.70211406,81.7263,09/25.0/2020,2000,g  8.0,4.0
# From MPC 93583
C/2012 A1 (PANSTARRS),e,120.9341,278.0673,191.8736,51051,0.0000001,0.99985145,0.0000,11/30.8889/2013,2000,g  6.0,4.0
# From MPC 91611
C/2012 A2 (LINEAR),e,125.7889,191.2732,101.4237,1004,0.0000310,0.99649870,0.0000,11/06.1246/2012,2000,g  8.5,4.0
# From MPC 94669
P/2012 B1 (PANSTARRS),e,7.6159,36.1994,162.5901,6.527367,0.0591013,0.40987314,155.0466,09/25.0/2020,2000,g  9.0,4.0
# From MPC 82719
C/2012 B3 (La Sagra),h,12/09.8296/2011,107.0289,252.9659,50.8591,1.000758,3.543081,2000,10.0,4.0
# From MPC 83519
C/2012 BJ98 (Lemmon),e,2.6308,123.9142,73.3711,17.28996,0.0137092,0.87385182,40.1583,09/25.0/2020,2000,g 12.5,4.0
# From MPC 89309
C/2012 C1 (McNaught),e,96.1294,300.5655,279.8992,1502,0.0000169,0.99677316,0.0000,02/01.6318/2013,2000,g  7.5,4.0
# From MPC 80898
C/2012 C2 (Bruenjes),h,03/09.2916/2012,162.6842,117.7098,62.2144,1.002392,0.794797,2000,17.0,4.0
# From MPC 78590
P/2012 C3 (PANSTARRS),e,9.0920,135.3677,344.9542,9.748681,0.0323806,0.63011148,359.9758,10/06.0/2011,2000,g 13.0,4.0
# From MPC 84022
C/2012 CH17 (MOSS),h,09/30.5015/2012,27.8003,125.5391,138.3602,1.000028,1.295474,2000,11.0,4.0
# From MPC 84022
C/2012 E1 (Hill),e,122.6399,286.2308,49.0032,1726,0.0000137,0.99563965,0.0000,07/05.2199/2011,2000,g  6.5,4.0
# From MPC 79023
C/2012 E2 (SWAN),p,03/15.0314/2012,144.2218,83.3435,0.006952,7.7078,2000,10.0,4.0
# From MPC 82318
C/2012 E3 (PANSTARRS),e,105.7171,5.6903,103.6841,206.6858,0.0003317,0.98136715,0.0000,05/09.0079/2011,2000,g 10.0,4.0
# From MPC 79868
C/2012 F1 (Gibbs),e,159.5807,130.6273,301.1494,73.94992,0.0015499,0.96547020,4.8639,09/25.0/2020,2000,g 14.0,4.0
# From MPC 84931
P/2012 F2 (PANSTARRS),e,14.7263,227.0602,33.2495,6.328330,0.0619114,0.54281339,168.5023,09/25.0/2020,2000,g 12.0,4.0
# From MPC107683
C/2012 F3 (PANSTARRS),h,04/07.5365/2015,11.3294,164.5144,104.3412,1.004634,3.470547,2000,6.5,4.0
# From MPC 90766
C/2012 F6 (Lemmon),e,82.7301,332.1300,304.9457,413.9562,0.0001170,0.99824100,0.0000,03/24.5755/2013,2000,g 10.0,4.0
# From MPC 79344
P/2012 G1 (PANSTARRS),e,11.6925,282.5440,286.1149,4.172871,0.1156250,0.38072240,359.9500,06/01.0/2012,2000,g 15.0,4.0
# From MPC 80046
C/2012 H2 (McNaught),e,92.7980,184.3772,296.0787,16.11145,0.0152406,0.89242232,46.7754,09/25.0/2020,2000,g 15.5,4.0
# From MPC109140
C/2012 J1 (Catalina),h,12/08.0787/2012,34.1023,235.0527,147.1442,1.000562,3.133990,2000,8.0,4.0
# From MPC103843
C/2012 K1 (PANSTARRS),h,08/27.5583/2014,142.2140,317.8066,202.9851,1.000152,1.044776,2000,5.6,3.2
# From MPC 80898
P/2012 K3 (Gibbs),e,13.1946,125.8087,172.1423,3.624597,0.1428284,0.42348153,57.7751,09/25.0/2020,2000,g 15.0,4.0
# From MPC103843
C/2012 K5 (LINEAR),e,92.7548,279.3997,139.1346,575.3441,0.0000714,0.99803599,0.0000,11/28.8824/2012,2000,g 12.0,4.0
# From MPC111766
C/2012 K6 (McNaught),e,135.1892,207.0685,339.1991,3178,0.0000055,0.99893895,0.0000,05/21.9819/2013,2000,g  8.5,4.0
# From MPC100577
C/2012 K8 (Lemmon),h,08/21.2133/2014,106.2122,312.7599,75.9731,1.000693,6.470902,2000,6.0,4.0
# From MPC 88326
